SKYSAT-C4               
1 41771U 16058B   17040.26786578 -.00000068  00000-0  00000+0 0  9995
2 41771  97.4022 115.2322 0000747 216.9733 184.1649 15.22072165 22223
SKYSAT-C5               
1 41772U 16058C   17040.25041811 -.00000068  00000-0  00000+0 0  9999
2 41772  97.4031 115.1068 0003221  53.1989 344.0574 15.21204798 22215
SKYSAT-C2               
1 41773U 16058D   17040.39046076 -.00000068  00000-0  00000+0 0  9993
2 41773  97.4017 115.4136 0002072  59.8200  70.5802 15.22048473 22235
SKYSAT-C3               
1 41774U 16058E   17040.45677264 -.00000068  00000-0  00000+0 0  9990
2 41774  97.4028 115.4491 0001386 102.9643 321.3465 15.22058764 22247
PATHFINDER 1            
1 41787U 16059E   17040.45981139  .00000043  00000-0  17746-4 0  9996
2 41787  98.1843 103.1871 0030086 199.1317 160.8741 14.63483841 19909
WORLDVIEW-4             
1 41848U 16067A   17040.22223162  .00000046  00000-0  11905-4 0  9997
2 41848  97.9607 114.5320 0002962 103.2951 256.8594 14.84698079 13279
GOKTURK 1A              
1 41875U 16073A   17040.38134090 -.00000046  00000-0  00000+0 0  9992
2 41875  98.1196 297.0426 0001684  71.1977 288.9395 14.62628423  9610
RESOURCESAT-2A          
1 41877U 16074A   17039.97613623 -.00000034  00000-0  43238-5 0  9995
2 41877  98.7259 117.1635 0016537  46.7735  18.2081 14.24912793  9064
